[
    {
        "OBJECT_NAME": "ISS (ZARYA)",
        "OBJECT_ID": "1998-067A",
        "EPOCH": "2024-09-30T12:06:33.543360",
        "MEAN_MOTION": 15.49960791,
        "ECCENTRICITY": 0.0007188,
        "INCLINATION": 51.6367,
        "RA_OF_ASC_NODE": 153.7358,
        "ARG_OF_PERICENTER": 46.4178,
        "MEAN_ANOMALY": 313.7407,
        "EPHEMERIS_TYPE": 0,
        "CLASSIFICATION_TYPE": "U",
        "NORAD_CAT_ID": 25544,
        "ELEMENT_SET_NO": 999,
        "REV_AT_EPOCH": 47488,
        "BSTAR": 0.00056373,
        "MEAN_MOTION_DOT": 0.00031827,
        "MEAN_MOTION_DDOT": 0,
        "date_fetched": "2024-09-30T19:10:30.954330Z"
    },
    {
        "OBJECT_NAME": "ISS (ZARYA)",
        "OBJECT_ID": "1998-067A",
        "EPOCH": "2024-10-01T01:06:07.721280",
        "MEAN_MOTION": 15.4998939,
        "ECCENTRICITY": 0.0007471,
        "INCLINATION": 51.6382,
        "RA_OF_ASC_NODE": 151.0497,
        "ARG_OF_PERICENTER": 49.2119,
        "MEAN_ANOMALY": 93.716,
        "EPHEMERIS_TYPE": 0,
        "CLASSIFICATION_TYPE": "U",
        "NORAD_CAT_ID": 25544,
        "ELEMENT_SET_NO": 999,
        "REV_AT_EPOCH": 47496,
        "BSTAR": 0.00053574,
        "MEAN_MOTION_DOT": 0.0003025,
        "MEAN_MOTION_DDOT": 0,
        "date_fetched": "2024-10-01T02:24:07.489454Z"
    },
    {
        "OBJECT_NAME": "ISS (ZARYA)",
        "OBJECT_ID": "1998-067A",
        "EPOCH": "2024-10-01T02:43:20.294976",
        "MEAN_MOTION": 15.50002848,
        "ECCENTRICITY": 0.000707,
        "INCLINATION": 51.6388,
        "RA_OF_ASC_NODE": 150.7184,
        "ARG_OF_PERICENTER": 47.8248,
        "MEAN_ANOMALY": 112.043,
        "EPHEMERIS_TYPE": 0,
        "CLASSIFICATION_TYPE": "U",
        "NORAD_CAT_ID": 25544,
        "ELEMENT_SET_NO": 999,
        "REV_AT_EPOCH": 47497,
        "BSTAR": 0.00045562,
        "MEAN_MOTION_DOT": 0.00025652,
        "MEAN_MOTION_DDOT": 0,
        "date_fetched": "2024-10-01T07:15:28.632689Z"
    },
    {
        "OBJECT_NAME": "ISS (ZARYA)",
        "OBJECT_ID": "1998-067A",
        "EPOCH": "2024-10-01T12:52:02.775936",
        "MEAN_MOTION": 15.50009885,
        "ECCENTRICITY": 0.000714,
        "INCLINATION": 51.6362,
        "RA_OF_ASC_NODE": 148.6261,
        "ARG_OF_PERICENTER": 50.6287,
        "MEAN_ANOMALY": 309.5333,
        "EPHEMERIS_TYPE": 0,
        "CLASSIFICATION_TYPE": "U",
        "NORAD_CAT_ID": 25544,
        "ELEMENT_SET_NO": 999,
        "REV_AT_EPOCH": 47504,
        "BSTAR": 0.00043781,
        "MEAN_MOTION_DOT": 0.00024635,
        "MEAN_MOTION_DDOT": 0,
        "date_fetched": "2024-10-01T19:12:24.759643Z"
    },
    {
        "OBJECT_NAME": "ISS (ZARYA)",
        "OBJECT_ID": "1998-067A",
        "EPOCH": "2024-10-02T00:18:32.659200",
        "MEAN_MOTION": 15.50045663,
        "ECCENTRICITY": 0.0007211,
        "INCLINATION": 51.6367,
        "RA_OF_ASC_NODE": 146.2606,
        "ARG_OF_PERICENTER": 54.1895,
        "MEAN_ANOMALY": 87.9492,
        "EPHEMERIS_TYPE": 0,
        "CLASSIFICATION_TYPE": "U",
        "NORAD_CAT_ID": 25544,
        "ELEMENT_SET_NO": 999,
        "REV_AT_EPOCH": 47511,
        "BSTAR": 0.0010801,
        "MEAN_MOTION_DOT": 0.00061821,
        "MEAN_MOTION_DDOT": 0,
        "date_fetched": "2024-10-02T02:15:09.133128Z"
    },
    {
        "OBJECT_NAME": "ISS (ZARYA)",
        "OBJECT_ID": "1998-067A",
        "EPOCH": "2024-10-02T03:22:57.817344",
        "MEAN_MOTION": 15.50060913,
        "ECCENTRICITY": 0.0007226,
        "INCLINATION": 51.6375,
        "RA_OF_ASC_NODE": 145.6259,
        "ARG_OF_PERICENTER": 53.2509,
        "MEAN_ANOMALY": 84.0093,
        "EPHEMERIS_TYPE": 0,
        "CLASSIFICATION_TYPE": "U",
        "NORAD_CAT_ID": 25544,
        "ELEMENT_SET_NO": 999,
        "REV_AT_EPOCH": 47513,
        "BSTAR": 0.0010367,
        "MEAN_MOTION_DOT": 0.00059332,
        "MEAN_MOTION_DDOT": 0,
        "date_fetched": "2024-10-02T07:14:05.977783Z"
    },
    {
        "OBJECT_NAME": "ISS (ZARYA)",
        "OBJECT_ID": "1998-067A",
        "EPOCH": "2024-10-02T08:58:29.999712",
        "MEAN_MOTION": 15.5007402,
        "ECCENTRICITY": 0.0007356,
        "INCLINATION": 51.6382,
        "RA_OF_ASC_NODE": 144.472,
        "ARG_OF_PERICENTER": 54.4438,
        "MEAN_ANOMALY": 303.9262,
        "EPHEMERIS_TYPE": 0,
        "CLASSIFICATION_TYPE": "U",
        "NORAD_CAT_ID": 25544,
        "ELEMENT_SET_NO": 999,
        "REV_AT_EPOCH": 47516,
        "BSTAR": 0.00083119,
        "MEAN_MOTION_DOT": 0.00047432,
        "MEAN_MOTION_DDOT": 0,
        "date_fetched": "2024-10-02T13:22:27.836855Z"
    },
    {
        "OBJECT_NAME": "ISS (ZARYA)",
        "OBJECT_ID": "1998-067A",
        "EPOCH": "2024-10-02T12:22:46.136928",
        "MEAN_MOTION": 15.50071376,
        "ECCENTRICITY": 0.000753,
        "INCLINATION": 51.6389,
        "RA_OF_ASC_NODE": 143.7648,
        "ARG_OF_PERICENTER": 53.7899,
        "MEAN_ANOMALY": 16.6842,
        "EPHEMERIS_TYPE": 0,
        "CLASSIFICATION_TYPE": "U",
        "NORAD_CAT_ID": 25544,
        "ELEMENT_SET_NO": 999,
        "REV_AT_EPOCH": 47519,
        "BSTAR": 0.00051044,
        "MEAN_MOTION_DOT": 0.0002888,
        "MEAN_MOTION_DDOT": 0,
        "date_fetched": "2024-10-02T19:12:12.287102Z"
    },
    {
        "OBJECT_NAME": "ISS (ZARYA)",
        "OBJECT_ID": "1998-067A",
        "EPOCH": "2024-10-02T19:48:49.942656",
        "MEAN_MOTION": 15.50081702,
        "ECCENTRICITY": 0.0007054,
        "INCLINATION": 51.6361,
        "RA_OF_ASC_NODE": 142.2368,
        "ARG_OF_PERICENTER": 54.4706,
        "MEAN_ANOMALY": 305.694,
        "EPHEMERIS_TYPE": 0,
        "CLASSIFICATION_TYPE": "U",
        "NORAD_CAT_ID": 25544,
        "ELEMENT_SET_NO": 999,
        "REV_AT_EPOCH": 47524,
        "BSTAR": 0.00057846,
        "MEAN_MOTION_DOT": 0.00032815,
        "MEAN_MOTION_DDOT": 0,
        "date_fetched": "2024-10-03T02:15:51.586852Z"
    },
    {
        "OBJECT_NAME": "ISS (ZARYA)",
        "OBJECT_ID": "1998-067A",
        "EPOCH": "2024-10-03T02:35:10.407840",
        "MEAN_MOTION": 15.50119066,
        "ECCENTRICITY": 0.0006627,
        "INCLINATION": 51.6369,
        "RA_OF_ASC_NODE": 140.8374,
        "ARG_OF_PERICENTER": 56.0033,
        "MEAN_ANOMALY": 79.8803,
        "EPHEMERIS_TYPE": 0,
        "CLASSIFICATION_TYPE": "U",
        "NORAD_CAT_ID": 25544,
        "ELEMENT_SET_NO": 999,
        "REV_AT_EPOCH": 47528,
        "BSTAR": 0.00092694,
        "MEAN_MOTION_DOT": 0.00053062,
        "MEAN_MOTION_DDOT": 0,
        "date_fetched": "2024-10-03T07:15:15.631602Z"
    },
    {
        "OBJECT_NAME": "ISS (ZARYA)",
        "OBJECT_ID": "1998-067A",
        "EPOCH": "2024-10-04T00:16:35.577696",
        "MEAN_MOTION": 15.50175965,
        "ECCENTRICITY": 0.000709,
        "INCLINATION": 51.6367,
        "RA_OF_ASC_NODE": 136.3595,
        "ARG_OF_PERICENTER": 58.4714,
        "MEAN_ANOMALY": 84.1304,
        "EPHEMERIS_TYPE": 0,
        "CLASSIFICATION_TYPE": "U",
        "NORAD_CAT_ID": 25544,
        "ELEMENT_SET_NO": 999,
        "REV_AT_EPOCH": 47542,
        "BSTAR": 0.0016638,
        "MEAN_MOTION_DOT": 0.00096343,
        "MEAN_MOTION_DDOT": 0,
        "date_fetched": "2024-10-04T02:15:49.590960Z"
    },
    {
        "OBJECT_NAME": "ISS (ZARYA)",
        "OBJECT_ID": "1998-067A",
        "EPOCH": "2024-10-04T03:22:33.664224",
        "MEAN_MOTION": 15.50181475,
        "ECCENTRICITY": 0.0007041,
        "INCLINATION": 51.6369,
        "RA_OF_ASC_NODE": 135.7187,
        "ARG_OF_PERICENTER": 58.8614,
        "MEAN_ANOMALY": 84.9238,
        "EPHEMERIS_TYPE": 0,
        "CLASSIFICATION_TYPE": "U",
        "NORAD_CAT_ID": 25544,
        "ELEMENT_SET_NO": 999,
        "REV_AT_EPOCH": 47544,
        "BSTAR": 0.00095948,
        "MEAN_MOTION_DOT": 0.00055082,
        "MEAN_MOTION_DDOT": 0,
        "date_fetched": "2024-10-04T07:14:26.860074Z"
    }
]